[{"OBJECT_NAME":"ONEWEB-0429","OBJECT_ID":"2021-132AH","EPOCH":"2026-03-30T17:32:05.205984","MEAN_MOTION":13.18688213,"ECCENTRICITY":0.0001895,"INCLINATION":87.9239,"RA_OF_ASC_NODE":351.0548,"ARG_OF_PERICENTER":79.9277,"MEAN_ANOMALY":280.2069,"EPHEMERIS_TYPE":0,"CLASSIFICATION_TYPE":"U","NORAD_CAT_ID":50500,"ELEMENT_SET_NO":999,"REV_AT_EPOCH":21124,"BSTAR":8.7136e-05,"MEAN_MOTION_DOT":4.7e-07,"MEAN_MOTION_DDOT":0.0},{"OBJECT_NAME":"ONEWEB-0430","OBJECT_ID":"2021-132AJ","EPOCH":"2026-03-30T19:04:44.078304","MEAN_MOTION":13.18686139,"ECCENTRICITY":0.0001962,"INCLINATION":87.9238,"RA_OF_ASC_NODE":351.0401,"ARG_OF_PERICENTER":74.6397,"MEAN_ANOMALY":285.4952,"EPHEMERIS_TYPE":0,"CLASSIFICATION_TYPE":"U","NORAD_CAT_ID":50501,"ELEMENT_SET_NO":999,"REV_AT_EPOCH":21129,"BSTAR":-1.0125e-05,"MEAN_MOTION_DOT":9e-08,"MEAN_MOTION_DDOT":0.0},{"OBJECT_NAME":"ONEWEB-0432","OBJECT_ID":"2021-132AK","EPOCH":"2026-03-30T18:04:12.978336","MEAN_MOTION":13.1864621,"ECCENTRICITY":0.0001642,"INCLINATION":87.9244,"RA_OF_ASC_NODE":351.0174,"ARG_OF_PERICENTER":54.7168,"MEAN_ANOMALY":305.4117,"EPHEMERIS_TYPE":0,"CLASSIFICATION_TYPE":"U","NORAD_CAT_ID":50502,"ELEMENT_SET_NO":999,"REV_AT_EPOCH":21124,"BSTAR":-2.3834e-05,"MEAN_MOTION_DOT":3e-08,"MEAN_MOTION_DDOT":0.0},{"OBJECT_NAME":"ONEWEB-0440","OBJECT_ID":"2021-132AL","EPOCH":"2026-03-30T23:11:45.056544","MEAN_MOTION":13.18687646,"ECCENTRICITY":0.0001906,"INCLINATION":87.9246,"RA_OF_ASC_NODE":350.996,"ARG_OF_PERICENTER":91.1601,"MEAN_ANOMALY":268.9749,"EPHEMERIS_TYPE":0,"CLASSIFICATION_TYPE":"U","NORAD_CAT_ID":50503,"ELEMENT_SET_NO":999,"REV_AT_EPOCH":21126,"BSTAR":-8.5683e-05,"MEAN_MOTION_DOT":-2.1e-07,"MEAN_MOTION_DDOT":0.0},{"OBJECT_NAME":"ONEWEB-0450","OBJECT_ID":"2021-132AM","EPOCH":"2026-03-30T23:02:26.820960","MEAN_MOTION":13.18686696,"ECCENTRICITY":0.0002053,"INCLINATION":87.9237,"RA_OF_ASC_NODE":351.0107,"ARG_OF_PERICENTER":79.0971,"MEAN_ANOMALY":281.0392,"EPHEMERIS_TYPE":0,"CLASSIFICATION_TYPE":"U","NORAD_CAT_ID":50504,"ELEMENT_SET_NO":999,"REV_AT_EPOCH":21129,"BSTAR":-0.00046171,"MEAN_MOTION_DOT":-1.69e-06,"MEAN_MOTION_DDOT":0.0},{"OBJECT_NAME":"ONEWEB-0410","OBJECT_ID":"2022-012A","EPOCH":"2026-03-30T20:25:38.946144","MEAN_MOTION":13.17651302,"ECCENTRICITY":4.96e-05,"INCLINATION":87.919,"RA_OF_ASC_NODE":21.4057,"ARG_OF_PERICENTER":58.6712,"MEAN_ANOMALY":301.4469,"EPHEMERIS_TYPE":0,"CLASSIFICATION_TYPE":"U","NORAD_CAT_ID":51622,"ELEMENT_SET_NO":999,"REV_AT_EPOCH":20338,"BSTAR":-7.9718e-05,"MEAN_MOTION_DOT":-1.8e-07,"MEAN_MOTION_DDOT":0.0},{"OBJECT_NAME":"ONEWEB-0411","OBJECT_ID":"2022-012B","EPOCH":"2026-03-30T19:45:00.632736","MEAN_MOTION":13.10369906,"ECCENTRICITY":0.0002346,"INCLINATION":87.881,"RA_OF_ASC_NODE":51.8573,"ARG_OF_PERICENTER":72.7091,"MEAN_ANOMALY":287.4293,"EPHEMERIS_TYPE":0,"CLASSIFICATION_TYPE":"U","NORAD_CAT_ID":51623,"ELEMENT_SET_NO":999,"REV_AT_EPOCH":19902,"BSTAR":-0.00017129,"MEAN_MOTION_DOT":-4.7e-07,"MEAN_MOTION_DDOT":0.0},{"OBJECT_NAME":"ONEWEB-0415","OBJECT_ID":"2022-012C","EPOCH":"2026-03-30T19:40:14.939040","MEAN_MOTION":13.10372131,"ECCENTRICITY":0.0002058,"INCLINATION":87.8807,"RA_OF_ASC_NODE":51.8604,"ARG_OF_PERICENTER":75.6037,"MEAN_ANOMALY":284.5319,"EPHEMERIS_TYPE":0,"CLASSIFICATION_TYPE":"U","NORAD_CAT_ID":51624,"ELEMENT_SET_NO":999,"REV_AT_EPOCH":19902,"BSTAR":0.00031541999999999996,"MEAN_MOTION_DOT":1.23e-06,"MEAN_MOTION_DDOT":0.0},{"OBJECT_NAME":"ONEWEB-0416","OBJECT_ID":"2022-012D","EPOCH":"2026-03-30T21:46:54.327936","MEAN_MOTION":13.10370841,"ECCENTRICITY":0.0001909,"INCLINATION":87.8806,"RA_OF_ASC_NODE":51.8634,"ARG_OF_PERICENTER":67.9142,"MEAN_ANOMALY":292.2188,"EPHEMERIS_TYPE":0,"CLASSIFICATION_TYPE":"U","NORAD_CAT_ID":51625,"ELEMENT_SET_NO":999,"REV_AT_EPOCH":19907,"BSTAR":-0.001172,"MEAN_MOTION_DOT":-3.96e-06,"MEAN_MOTION_DDOT":0.0},{"OBJECT_NAME":"ONEWEB-0422","OBJECT_ID":"2022-012E","EPOCH":"2026-03-30T20:40:14.553984","MEAN_MOTION":13.17650559,"ECCENTRICITY":0.0002377,"INCLINATION":87.9188,"RA_OF_ASC_NODE":21.4066,"ARG_OF_PERICENTER":90.0443,"MEAN_ANOMALY":270.0961,"EPHEMERIS_TYPE":0,"CLASSIFICATION_TYPE":"U","NORAD_CAT_ID":51626,"ELEMENT_SET_NO":999,"REV_AT_EPOCH":20349,"BSTAR":-5.235e-05,"MEAN_MOTION_DOT":-7e-08,"MEAN_MOTION_DDOT":0.0},{"OBJECT_NAME":"ONEWEB-0423","OBJECT_ID":"2022-012F","EPOCH":"2026-03-30T20:30:31.631328","MEAN_MOTION":13.17649468,"ECCENTRICITY":0.000184,"INCLINATION":87.9188,"RA_OF_ASC_NODE":21.4168,"ARG_OF_PERICENTER":82.7388,"MEAN_ANOMALY":277.3953,"EPHEMERIS_TYPE":0,"CLASSIFICATION_TYPE":"U","NORAD_CAT_ID":51627,"ELEMENT_SET_NO":999,"REV_AT_EPOCH":20338,"BSTAR":-0.00017402999999999999,"MEAN_MOTION_DOT":-5.5e-07,"MEAN_MOTION_DDOT":0.0},{"OBJECT_NAME":"ONEWEB-0425","OBJECT_ID":"2022-012G","EPOCH":"2026-03-30T22:01:14.148768","MEAN_MOTION":13.1037318,"ECCENTRICITY":0.0001546,"INCLINATION":87.8818,"RA_OF_ASC_NODE":51.8403,"ARG_OF_PERICENTER":84.1864,"MEAN_ANOMALY":275.944,"EPHEMERIS_TYPE":0,"CLASSIFICATION_TYPE":"U","NORAD_CAT_ID":51628,"ELEMENT_SET_NO":999,"REV_AT_EPOCH":19907,"BSTAR":-0.0017814,"MEAN_MOTION_DOT":-6.09e-06,"MEAN_MOTION_DDOT":0.0},{"OBJECT_NAME":"ONEWEB-0428","OBJECT_ID":"2022-012H","EPOCH":"2026-03-30T19:42:36.964224","MEAN_MOTION":13.10370697,"ECCENTRICITY":0.0001914,"INCLINATION":87.8804,"RA_OF_ASC_NODE":51.871,"ARG_OF_PERICENTER":83.5058,"MEAN_ANOMALY":276.6287,"EPHEMERIS_TYPE":0,"CLASSIFICATION_TYPE":"U","NORAD_CAT_ID":51629,"ELEMENT_SET_NO":999,"REV_AT_EPOCH":19902,"BSTAR":0.00015115000000000001,"MEAN_MOTION_DOT":6.5e-07,"MEAN_MOTION_DDOT":0.0},{"OBJECT_NAME":"ONEWEB-0431","OBJECT_ID":"2022-012J","EPOCH":"2026-03-30T20:49:21.224928","MEAN_MOTION":13.10374782,"ECCENTRICITY":0.0002475,"INCLINATION":87.8822,"RA_OF_ASC_NODE":51.8488,"ARG_OF_PERICENTER":74.3297,"MEAN_ANOMALY":285.8104,"EPHEMERIS_TYPE":0,"CLASSIFICATION_TYPE":"U","NORAD_CAT_ID":51630,"ELEMENT_SET_NO":999,"REV_AT_EPOCH":19908,"BSTAR":0.0009510800000000001,"MEAN_MOTION_DOT":3.45e-06,"MEAN_MOTION_DDOT":0.0},{"OBJECT_NAME":"ONEWEB-0434","OBJECT_ID":"2022-012K","EPOCH":"2026-03-30T22:06:12.753216","MEAN_MOTION":13.10374614,"ECCENTRICITY":0.0001275,"INCLINATION":87.8812,"RA_OF_ASC_NODE":51.865,"ARG_OF_PERICENTER":90.1608,"MEAN_ANOMALY":269.9666,"EPHEMERIS_TYPE":0,"CLASSIFICATION_TYPE":"U","NORAD_CAT_ID":51631,"ELEMENT_SET_NO":999,"REV_AT_EPOCH":19907,"BSTAR":-0.0018484,"MEAN_MOTION_DOT":-6.33e-06,"MEAN_MOTION_DDOT":0.0},{"OBJECT_NAME":"ONEWEB-0435","OBJECT_ID":"2022-012L","EPOCH":"2026-03-30T20:28:03.559872","MEAN_MOTION":13.10354586,"ECCENTRICITY":0.0002177,"INCLINATION":87.8812,"RA_OF_ASC_NODE":51.8692,"ARG_OF_PERICENTER":89.0512,"MEAN_ANOMALY":271.0865,"EPHEMERIS_TYPE":0,"CLASSIFICATION_TYPE":"U","NORAD_CAT_ID":51632,"ELEMENT_SET_NO":999,"REV_AT_EPOCH":19905,"BSTAR":0.012484000000000002,"MEAN_MOTION_DOT":4.372e-05,"MEAN_MOTION_DDOT":0.0}]