ONEWEB-0429             
1 50500U 21132AH  26089.73061581  .00000047  00000+0  87136-4 0  9994
2 50500  87.9239 351.0548 0001895  79.9277 280.2069 13.18688213211248
ONEWEB-0430             
1 50501U 21132AJ  26089.79495461  .00000009  00000+0 -10125-4 0  9992
2 50501  87.9238 351.0401 0001962  74.6397 285.4952 13.18686139211294
ONEWEB-0432             
1 50502U 21132AK  26089.75292799  .00000003  00000+0 -23834-4 0  9993
2 50502  87.9244 351.0174 0001642  54.7168 305.4117 13.18646210211246
ONEWEB-0440             
1 50503U 21132AL  26089.96649371 -.00000021  00000+0 -85683-4 0  9990
2 50503  87.9246 350.9960 0001906  91.1601 268.9749 13.18687646211264
ONEWEB-0450             
1 50504U 21132AM  26089.96003265 -.00000169  00000+0 -46171-3 0  9998
2 50504  87.9237 351.0107 0002053  79.0971 281.0392 13.18686696211296
ONEWEB-0410             
1 51622U 22012A   26089.85114521 -.00000018  00000+0 -79718-4 0  9991
2 51622  87.9190  21.4057 0000496  58.6712 301.4469 13.17651302203381
ONEWEB-0411             
1 51623U 22012B   26089.82292399 -.00000047  00000+0 -17129-3 0  9998
2 51623  87.8810  51.8573 0002346  72.7091 287.4293 13.10369906199025
ONEWEB-0415             
1 51624U 22012C   26089.81961735  .00000123  00000+0  31542-3 0  9993
2 51624  87.8807  51.8604 0002058  75.6037 284.5319 13.10372131199020
ONEWEB-0416             
1 51625U 22012D   26089.90757324 -.00000396  00000+0 -11720-2 0  9990
2 51625  87.8806  51.8634 0001909  67.9142 292.2188 13.10370841199079
ONEWEB-0422             
1 51626U 22012E   26089.86127956 -.00000007  00000+0 -52350-4 0  9993
2 51626  87.9188  21.4066 0002377  90.0443 270.0961 13.17650559203496
ONEWEB-0423             
1 51627U 22012F   26089.85453277 -.00000055  00000+0 -17403-3 0  9993
2 51627  87.9188  21.4168 0001840  82.7388 277.3953 13.17649468203386
ONEWEB-0425             
1 51628U 22012G   26089.91752487 -.00000609  00000+0 -17814-2 0  9996
2 51628  87.8818  51.8403 0001546  84.1864 275.9440 13.10373180199076
ONEWEB-0428             
1 51629U 22012H   26089.82126116  .00000065  00000+0  15115-3 0  9998
2 51629  87.8804  51.8710 0001914  83.5058 276.6287 13.10370697199022
ONEWEB-0431             
1 51630U 22012J   26089.86760677  .00000345  00000+0  95108-3 0  9991
2 51630  87.8822  51.8488 0002475  74.3297 285.8104 13.10374782199087
ONEWEB-0434             
1 51631U 22012K   26089.92098094 -.00000633  00000+0 -18484-2 0  9999
2 51631  87.8812  51.8650 0001275  90.1608 269.9666 13.10374614199076
ONEWEB-0435             
1 51632U 22012L   26089.85281898  .00004372  00000+0  12484-1 0  9993
2 51632  87.8812  51.8692 0002177  89.0512 271.0865 13.10354586199055
